OBJECT_NAME,OBJECT_ID,EPOCH,MEAN_MOTION,ECCENTRICITY,INCLINATION,RA_OF_ASC_NODE,ARG_OF_PERICENTER,MEAN_ANOMALY,EPHEMERIS_TYPE,CLASSIFICATION_TYPE,NORAD_CAT_ID,ELEMENT_SET_NO,REV_AT_EPOCH,BSTAR,MEAN_MOTION_DOT,MEAN_MOTION_DDOT
BB 1,2023-050K,2026-07-06T21:08:13.373376,13.92825829,.00145762,81.0025,61.6257,250.1001,109.8589,0,U,56171,999,16427,.1496219E-3,.205E-5,0
INTELSAT 40E (IS-40E),2023-052A,2026-07-08T06:25:27.350688,1.00268946,.00023531,0.0205,50.4332,96.3576,144.7906,0,U,56174,999,1203,0,0,0
IMECE,2023-054A,2026-07-08T14:06:52.119936,14.65861740,.00109942,98.1208,94.1671,101.1744,259.0696,0,U,56178,999,17354,.44047783E-4,.193E-5,0
GHGSAT-C8,2023-054J,2026-07-08T13:10:35.925024,15.53623373,.00039271,97.2961,99.1429,26.1555,333.9896,0,U,56186,999,18175,.18631981E-3,.11788E-3,0
HAWK-7A,2023-054P,2026-07-08T14:20:37.778208,15.27586909,.00021774,97.2675,76.3907,2.1486,357.9763,0,U,56191,999,18029,.14311261E-3,.3788E-4,0
ION SCV-010,2023-054Q,2026-07-08T14:21:36.123264,15.26385232,.00142861,97.3753,78.8258,124.6984,235.5603,0,U,56192,999,17946,.12255352E-3,.3123E-4,0
HAWK-7B,2023-054R,2026-07-08T14:20:31.140960,15.27589909,.00020164,97.2702,74.6619,28.7267,331.4084,0,U,56193,999,18029,.14071312E-3,.3724E-4,0
HAWK-7C,2023-054Y,2026-07-08T14:20:21.618816,15.27588010,.00016883,97.2678,75.4240,14.6461,345.4827,0,U,56200,999,18029,.1402897E-3,.3712E-4,0
NUSAT-39 (TIKVAH ALPER),2023-054Z,2026-07-08T13:58:20.866080,15.47765381,.00029241,97.3097,99.5446,357.1875,2.9359,0,U,56201,999,18176,.39469358E-3,.20395E-3,0
NUSAT-38 (MARIA AGNESI),2023-054AA,2026-07-08T14:10:15.723264,15.50896041,.00099599,97.3036,100.2625,354.4648,5.6492,0,U,56202,999,18182,.43231959E-3,.25002E-3,0
NUSAT-37 (JOAN CLARKE),2023-054AB,2026-07-08T13:19:55.291584,15.59147950,.00068911,97.2608,97.0618,163.0593,197.0895,0,U,56203,999,18197,.47023606E-3,.36813E-3,0
GHGSAT-C6,2023-054AC,2026-07-08T13:54:33.214176,15.53603006,.00041516,97.3025,99.8715,342.0210,18.0896,0,U,56204,999,18177,.17719865E-3,.11197E-3,0
GHGSAT-C7,2023-054AH,2026-07-08T13:32:27.030336,15.50345428,.00056376,97.2977,98.2112,334.5193,25.5780,0,U,56209,999,18170,.13577811E-3,.761E-4,0
KEPLER-21,2023-054AS,2026-07-08T12:18:09.338976,16.30453406,.00082687,97.2749,111.8563,203.4941,156.5977,0,U,56218,999,18265,.56740193E-3,.2589526E-1,.2429416E-5
AAC-HSI-SAT1,2023-054AZ,2026-07-08T14:20:32.742816,15.12605394,.00113041,97.3662,65.2311,56.7114,303.5198,0,U,56225,999,17860,.90748396E-4,.1524E-4,0
FENGYUN 3G,2023-055A,2026-07-08T14:17:33.648576,15.53583072,.00072025,49.9917,235.6351,26.4450,333.6884,0,U,56232,999,18333,.23938804E-3,.15128E-3,0
STARLINK-30107,2023-056B,2026-07-08T03:57:28.996416,15.27568174,.00010679,43.0006,230.7733,261.8700,98.2030,0,U,56287,999,17872,.64165145E-4,.1503E-4,0
STARLINK-30106,2023-056C,2026-07-08T11:31:56.721504,15.27593616,.00011446,42.9994,246.7406,238.1458,121.9283,0,U,56288,999,17851,.62551261E-4,.146E-4,0
STARLINK-30095,2023-056D,2026-07-08T08:55:49.042560,15.27571717,.00013549,43.0000,221.4832,272.8331,87.2366,0,U,56289,999,17879,.15042806E-4,.152E-5,0
STARLINK-30103,2023-056E,2026-07-08T13:11:39.559488,15.27590813,.00017527,43.0047,246.3975,287.3122,72.7538,0,U,56290,999,17852,.35810792E-4,.723E-5,0
STARLINK-30113,2023-056F,2026-07-08T05:09:46.895904,15.27574711,.00010773,42.9994,248.1800,218.8950,141.1824,0,U,56291,999,17847,.15403348E-3,.3978E-4,0
STARLINK-30098,2023-056G,2026-07-08T05:26:25.825056,15.27582884,.00015986,43.0026,248.2592,278.9838,81.0833,0,U,56292,999,17847,.24924165E-3,.6603E-4,0
STARLINK-30049,2023-056J,2026-07-08T10:29:12.161184,15.27607957,.00016391,42.9976,247.1913,266.1587,93.9077,0,U,56294,999,17850,.12557967E-3,.3198E-4,0
STARLINK-30083,2023-056K,2026-07-08T13:20:00.161952,15.27586815,.00016879,43.0029,221.1296,258.1474,101.9188,0,U,56295,999,17880,.34534543E-3,.9255E-4,0
STARLINK-30089,2023-056L,2026-07-08T08:56:44.799936,15.27569853,.00012613,43.0033,207.5844,244.4572,115.6149,0,U,56296,999,17895,.10373098E-3,.2592E-4,0
STARLINK-30086,2023-056M,2026-07-08T10:21:48.311424,15.27695696,.00023942,43.0005,247.1519,215.7778,144.2913,0,U,56297,999,17850,-.92140284E-3,-.25622E-3,0
STARLINK-30109,2023-056N,2026-07-08T05:02:21.859872,15.27564026,.00009805,43.0030,248.0736,241.1420,118.9333,0,U,56298,999,17853,.24984946E-3,.6616E-4,0
STARLINK-30108,2023-056P,2026-07-08T11:50:25.794240,15.27597949,.00018545,43.0035,235.4740,279.1562,80.9080,0,U,56299,999,17870,.12218633E-3,.3103E-4,0
STARLINK-30104,2023-056Q,2026-07-08T10:18:09.490464,15.27585231,.00014717,43.0046,247.2167,273.8243,86.2440,0,U,56300,999,17856,.8344962E-5,-.33E-6,0
STARLINK-30101,2023-056R,2026-07-08T10:19:32.540736,15.29199121,.00002813,43.0000,246.3464,332.0109,28.0728,0,U,56301,999,17857,.33636747E-3,.9473E-4,0
