BB 1                    
1 56171U 23050K   26187.88071034  .00000205  00000+0  14962-3 0  9996
2 56171  81.0025  61.6257 0014576 250.1001 109.8589 13.92825829164276
INTELSAT 40E (IS-40E)   
1 56174U 23052A   26189.26767767  .00000000  00000+0  00000+0 0  9997
2 56174   0.0205  50.4332 0002353  96.3576 144.7906  1.00268946 12031
IMECE                   
1 56178U 23054A   26189.58810324  .00000193  00000+0  44048-4 0  9994
2 56178  98.1208  94.1671 0010994 101.1744 259.0696 14.65861740173545
GHGSAT-C8               
1 56186U 23054J   26189.54902691  .00011788  00000+0  18632-3 0  9999
2 56186  97.2961  99.1429 0003927  26.1555 333.9896 15.53623373181752
HAWK-7A                 
1 56191U 23054P   26189.59765947  .00003788  00000+0  14311-3 0  9992
2 56191  97.2675  76.3907 0002177   2.1486 357.9763 15.27586909180292
ION SCV-010             
1 56192U 23054Q   26189.59833476  .00003123  00000+0  12255-3 0  9994
2 56192  97.3753  78.8258 0014286 124.6984 235.5603 15.26385232179460
HAWK-7B                 
1 56193U 23054R   26189.59758265  .00003724  00000+0  14071-3 0  9992
2 56193  97.2702  74.6619 0002016  28.7267 331.4084 15.27589909180295
HAWK-7C                 
1 56200U 23054Y   26189.59747244  .00003712  00000+0  14029-3 0  9996
2 56200  97.2678  75.4240 0001688  14.6461 345.4827 15.27588010180291
NUSAT-39 (TIKVAH ALPER) 
1 56201U 23054Z   26189.58218595  .00020395  00000+0  39469-3 0  9999
2 56201  97.3097  99.5446 0002924 357.1875   2.9359 15.47765381181769
NUSAT-38 (MARIA AGNESI) 
1 56202U 23054AA  26189.59045976  .00025002  00000+0  43232-3 0  9995
2 56202  97.3036 100.2625 0009959 354.4648   5.6492 15.50896041181822
NUSAT-37 (JOAN CLARKE)  
1 56203U 23054AB  26189.55550106  .00036813  00000+0  47024-3 0  9993
2 56203  97.2608  97.0618 0006891 163.0593 197.0895 15.59147950181973
GHGSAT-C6               
1 56204U 23054AC  26189.57955109  .00011197  00000+0  17720-3 0  9996
2 56204  97.3025  99.8715 0004151 342.0210  18.0896 15.53603006181772
GHGSAT-C7               
1 56209U 23054AH  26189.56420174  .00007610  00000+0  13578-3 0  9991
2 56209  97.2977  98.2112 0005637 334.5193  25.5780 15.50345428181708
KEPLER-21               
1 56218U 23054AS  26189.51260809  .02589526  24294-5  56740-3 0  9991
2 56218  97.2749 111.8563 0008268 203.4941 156.5977 16.30453406182658
AAC-HSI-SAT1            
1 56225U 23054AZ  26189.59760119  .00001524  00000+0  90748-4 0  9991
2 56225  97.3662  65.2311 0011304  56.7114 303.5198 15.12605394178603
FENGYUN 3G              
1 56232U 23055A   26189.59552834  .00015128  00000+0  23939-3 0  9995
2 56232  49.9917 235.6351 0007202  26.4450 333.6884 15.53583072183338
STARLINK-30107          
1 56287U 23056B   26189.16491894  .00001503  00000+0  64165-4 0  9996
2 56287  43.0006 230.7733 0001067 261.8700  98.2030 15.27568174178729
STARLINK-30106          
1 56288U 23056C   26189.48051761  .00001460  00000+0  62551-4 0  9996
2 56288  42.9994 246.7406 0001144 238.1458 121.9283 15.27593616178511
STARLINK-30095          
1 56289U 23056D   26189.37209540  .00000152  00000+0  15043-4 0  9996
2 56289  43.0000 221.4832 0001354 272.8331  87.2366 15.27571717178797
STARLINK-30103          
1 56290U 23056E   26189.54976342  .00000723  00000+0  35811-4 0  9997
2 56290  43.0047 246.3975 0001752 287.3122  72.7538 15.27590813178524
STARLINK-30113          
1 56291U 23056F   26189.21512611  .00003978  00000+0  15403-3 0  9996
2 56291  42.9994 248.1800 0001077 218.8950 141.1824 15.27574711178471
STARLINK-30098          
1 56292U 23056G   26189.22668779  .00006603  00000+0  24924-3 0  9991
2 56292  43.0026 248.2592 0001598 278.9838  81.0833 15.27582884178471
STARLINK-30049          
1 56294U 23056J   26189.43694631  .00003198  00000+0  12558-3 0  9998
2 56294  42.9976 247.1913 0001639 266.1587  93.9077 15.27607957178501
STARLINK-30083          
1 56295U 23056K   26189.55555743  .00009255  00000+0  34535-3 0  9991
2 56295  43.0029 221.1296 0001687 258.1474 101.9188 15.27586815178803
STARLINK-30089          
1 56296U 23056L   26189.37274074  .00002592  00000+0  10373-3 0  9998
2 56296  43.0033 207.5844 0001261 244.4572 115.6149 15.27569853178959
STARLINK-30086          
1 56297U 23056M   26189.43180916 -.00025622  00000+0 -92140-3 0  9990
2 56297  43.0005 247.1519 0002394 215.7778 144.2913 15.27695696178508
STARLINK-30109          
1 56298U 23056N   26189.20997523  .00006616  00000+0  24985-3 0  9998
2 56298  43.0030 248.0736 0000980 241.1420 118.9333 15.27564026178533
STARLINK-30108          
1 56299U 23056P   26189.49335410  .00003103  00000+0  12219-3 0  9996
2 56299  43.0035 235.4740 0001854 279.1562  80.9080 15.27597949178709
STARLINK-30104          
1 56300U 23056Q   26189.42927651 -.00000033  00000+0  83450-5 0  9993
2 56300  43.0046 247.2167 0001471 273.8243  86.2440 15.27585231178564
STARLINK-30101          
1 56301U 23056R   26189.43023774  .00009473  00000+0  33637-3 0  9994
2 56301  43.0000 246.3464 0000281 332.0109  28.0728 15.29199121178577
